NORAD_CAT_ID,OBJECT_NAME,OBJECT_TYPE,EPOCH,MEAN_MOTION,ECCENTRICITY,INCLINATION,RA_OF_ASC_NODE,ARG_OF_PERICENTER,MEAN_ANOMALY,BSTAR,MEAN_MOTION_DOT,MEAN_MOTION_DDOT,TLE_LINE0,TLE_LINE1,TLE_LINE2,SEMIMAJOR_AXIS,PERIOD,APOGEE,PERIGEE,DECAYED
51965.0,STARLINK-3696,PAYLOAD,2022-04-25 14:00:01,15.70737688,0.000119,53.2176,267.0742,87.82700000000001,89.3288,-0.0061621,-0.00716131,0.0,0 STARLINK-3696,1 51965U 22025K   22115.58334491 -.00716131  00000-0 -61621-2 0  9994,2 51965  53.2176 267.0742 0001190  87.8270  89.3288 15.70737688  3714,6734.925,91.677,357.591,355.98800000000006,0.0
51965.0,STARLINK-3696,PAYLOAD,2022-04-25 22:00:00,15.70227678,0.0001125,53.2173,265.4318,96.6813,166.13299999999995,-0.0062866,-0.00715155,0.0,0 STARLINK-3696,1 51965U 22025K   22115.91667824 -.00715155  00000-0 -62866-2 0  9997,2 51965  53.2173 265.4318 0001125  96.6813 166.1330 15.70227678  3705,6736.3830000000025,91.706,359.006,357.49,0.0
51965.0,STARLINK-3696,PAYLOAD,2022-04-26 06:00:00,15.69717023,9.9e-05,53.2174,263.7878,88.0343,259.8287,-0.006421,-0.0071497,0.0,0 STARLINK-3696,1 51965U 22025K   22116.25001157 -.00714970  00000-0 -64210-2 0  9995,2 51965  53.2174 263.7878 0000990  88.0343 259.8287 15.69717023  8779,6737.844,91.736,360.376,359.042,0.0
51965.0,STARLINK-3696,PAYLOAD,2022-04-26 14:00:01,15.6920921,0.0001083,53.2174,262.1482,73.2751,359.0851,-0.0065922,-0.00718373,0.0,0 STARLINK-3696,1 51965U 22025K   22116.58335648 -.00718373  00000-0 -65922-2 0  9998,2 51965  53.2174 262.1482 0001083  73.2751 359.0851 15.69209210  3696,6739.297,91.766,361.892,360.432,0.0
51965.0,STARLINK-3696,PAYLOAD,2022-04-26 22:00:00,15.68698605,0.0001176,53.2171,260.5095,73.8134,82.3021,-0.0067173,-0.00716808,0.0,0 STARLINK-3696,1 51965U 22025K   22116.91667824 -.00716808  00000-0 -67173-2 0  9990,2 51965  53.2171 260.5095 0001176  73.8134  82.3021 15.68698605  3660,6740.76,91.796,363.417,361.832,0.0
51965.0,STARLINK-3696,PAYLOAD,2022-04-27 06:00:00,15.68187347,0.0001165,53.2173,258.869,85.1422,154.1832,-0.0068363,-0.00714456,0.0,0 STARLINK-3696,1 51965U 22025K   22117.25001157 -.00714456  00000-0 -68363-2 0  9998,2 51965  53.2173 258.8690 0001165  85.1422 154.1832 15.68187347  8936,6742.225,91.826,364.875,363.304,0.0
51965.0,STARLINK-3696,PAYLOAD,2022-04-27 14:00:01,15.67679231,0.0001102,53.2175,257.2333,78.4159,243.5688,-0.0070157,-0.00717733,0.0,0 STARLINK-3696,1 51965U 22025K   22117.58335648 -.00717733  00000-0 -70157-2 0  9994,2 51965  53.2175 257.2333 0001102  78.4159 243.5688 15.67679231  3695,6743.681,91.856,366.289,364.80300000000005,0.0
51965.0,STARLINK-3696,PAYLOAD,2022-04-28 06:00:00,15.66658782,0.0001143,53.2173,253.9615,69.8574,55.4156,-0.0073056,-0.00716937,0.0,0 STARLINK-3696,1 51965U 22025K   22118.25001157 -.00716937  00000-0 -73056-2 0  9990,2 51965  53.2173 253.9615 0001143  69.8574  55.4156 15.66658782  9085,6746.609,91.915,369.245,367.703,0.0
51965.0,STARLINK-3696,PAYLOAD,2022-04-28 14:00:01,15.66146606,0.0001361999999999,53.2175,252.3295,60.1464,145.8836,-0.0074148,-0.00713065,0.0,0 STARLINK-3696,1 51965U 22025K   22118.58334491 -.00713065  00000-0 -74148-2 0  9998,2 51965  53.2175 252.3295 0001362  60.1464 145.8836 15.66146606  3708,6748.08,91.945,370.864,369.026,0.0
51965.0,STARLINK-3696,PAYLOAD,2022-04-29 06:00:00,15.65127555,0.0001063,53.2172,249.065,67.3647,298.3417,-0.0077478,-0.00714859,0.0,0 STARLINK-3696,1 51965U 22025K   22119.25001157 -.00714859  00000-0 -77478-2 0  9994,2 51965  53.2172 249.0650 0001063  67.3647 298.3417 15.65127555  9248,6751.009,92.005,373.592,372.156,0.0
51965.0,STARLINK-3696,PAYLOAD,2022-04-29 14:00:01,15.64619448,0.000133,53.2172,247.4372,50.8351,33.7881,-0.0079373,-0.00717412,0.0,0 STARLINK-3696,1 51965U 22025K   22119.58334491 -.00717412  00000-0 -79373-2 0  9994,2 51965  53.2172 247.4372 0001330  50.8351  33.7881 15.64619448  3704,6752.47,92.035,375.234,373.437,0.0
51965.0,STARLINK-3696,PAYLOAD,2022-04-29 22:00:00,15.64109969,0.0001206,53.2172,245.8087,70.7892,92.1398,-0.0081099,-0.00718166,0.0,0 STARLINK-3696,1 51965U 22025K   22119.91667824 -.00718166  00000-0 -81099-2 0  9995,2 51965  53.2172 245.8087 0001206  70.7892  92.1398 15.64109969  3694,6753.937,92.065,376.616,374.987,0.0
51965.0,STARLINK-3696,PAYLOAD,2022-04-30 06:00:00,15.63598116,0.0001261,53.2173,244.1797,67.6073,173.0166,-0.0082346,-0.00714834,0.0,0 STARLINK-3696,1 51965U 22025K   22120.25001157 -.00714834  00000-0 -82346-2 0  9999,2 51965  53.2173 244.1797 0001261  67.6073 173.0166 15.63598116  9404,6755.411,92.095,378.127,376.424,0.0
51965.0,STARLINK-3696,PAYLOAD,2022-04-30 14:00:01,15.6308871,0.0001334,53.2175,242.5556,51.2435,266.4593,-0.0084111,-0.0071554,0.0,0 STARLINK-3696,1 51965U 22025K   22120.58334491 -.00715540  00000-0 -84111-2 0  9992,2 51965  53.2175 242.5556 0001334  51.2435 266.4593 15.63088710  3671,6756.878000000002,92.125,379.645,377.842,0.0
51965.0,STARLINK-3696,PAYLOAD,2022-04-30 22:00:00,15.62579509,0.0001047,53.2171,240.9308,69.6916,324.4783,-0.0085877999999999,-0.00715965,0.0,0 STARLINK-3696,1 51965U 22025K   22120.91667824 -.00715965  00000-0 -85878-2 0  9990,2 51965  53.2171 240.9308 0001047  69.6916 324.4783 15.62579509  3702,6758.346,92.155,380.919,379.503,0.0
51965.0,STARLINK-3696,PAYLOAD,2022-05-01 06:00:00,15.62069143,0.0001337,53.2173,239.3057,50.591,59.4351,-0.0087696,-0.00716629,0.0,0 STARLINK-3696,1 51965U 22025K   22121.25001157 -.00716629  00000-0 -87696-2 0  9997,2 51965  53.2173 239.3057 0001337  50.5910  59.4351 15.62069143  9555,6759.818,92.185,382.587,380.779,0.0
51965.0,STARLINK-3696,PAYLOAD,2022-05-01 14:00:01,15.61557914,0.0001534,53.2172,237.6853,49.996,135.2715,-0.0089118,-0.00714115,0.0,0 STARLINK-3696,1 51965U 22025K   22121.58334491 -.00714115  00000-0 -89118-2 0  9992,2 51965  53.2172 237.6853 0001534  49.9960 135.2715 15.61557914  3687,6761.293000000002,92.216,384.196,382.121,0.0
51965.0,STARLINK-3696,PAYLOAD,2022-05-01 22:00:01,15.61050437,0.0001258,53.2172,236.064,65.4368,194.5241,-0.0091467,-0.00718184,0.0,0 STARLINK-3696,1 51965U 22025K   22121.91668981 -.00718184  00000-0 -91467-2 0  9993,2 51965  53.2172 236.0640 0001258  65.4368 194.5241 15.61050437  3705,6762.759,92.246,385.474,383.773,0.0
51965.0,STARLINK-3696,PAYLOAD,2022-05-02 06:00:00,15.6053734,0.0001175,53.2173,234.4427,59.8474,274.0668,-0.0092539,-0.00712767,0.0,0 STARLINK-3696,1 51965U 22025K   22122.25001157 -.00712767  00000-0 -92539-2 0  9999,2 51965  53.2173 234.4427 0001175  59.8474 274.0668 15.60537340  9710,6764.241,92.276,386.901,385.311,0.0
51965.0,STARLINK-3696,PAYLOAD,2022-05-02 14:00:01,15.60030591,0.0001433,53.2174,232.8262,43.9286,3.3868,-0.0095083,-0.00717783,0.0,0 STARLINK-3696,1 51965U 22025K   22122.58334491 -.00717783  00000-0 -95083-2 0  9995,2 51965  53.2174 232.8262 0001433  43.9286   3.3868 15.60030591  3706,6765.706,92.306,388.54,386.601,0.0
51965.0,STARLINK-3696,PAYLOAD,2022-05-02 22:00:01,15.59519225,0.0001321,53.2173,231.2083,52.8197,67.3524,-0.0096601,-0.00715257,0.0,0 STARLINK-3696,1 51965U 22025K   22122.91668981 -.00715257  00000-0 -96601-2 0  9997,2 51965  53.2173 231.2083 0001321  52.8197  67.3524 15.59519225  3708,6767.185,92.336,389.943,388.156,0.0
51965.0,STARLINK-3696,PAYLOAD,2022-05-03 04:00:00,15.59135696,0.0001361,53.2174,229.9949,44.7345,39.5648,-0.0097838,-0.0071398,0.0,0 STARLINK-3696,1 51965U 22025K   22123.16667824 -.00713980  00000-0 -97838-2 0  9994,2 51965  53.2174 229.9949 0001361  44.7345  39.5648 15.59135696  9859,6768.294,92.359,391.08,389.23800000000006,0.0
51965.0,STARLINK-3696,PAYLOAD,2022-05-03 14:00:01,15.58498724,0.0001674,53.2176,227.9781,41.4301,222.4201,-0.010032,-0.00714541,0.0,0 STARLINK-3696,1 51965U 22025K   22123.58334491 -.00714541  00000-0 -10032-1 0  9995,2 51965  53.2176 227.9781 0001674  41.4301 222.4201 15.58498724  3693,6770.138000000001,92.397,393.137,390.87,0.0
51965.0,STARLINK-3696,PAYLOAD,2022-05-03 22:00:00,15.57989964,0.000128,53.2173,226.3638,51.9414,282.8612,-0.010256,-0.00716284,0.0,0 STARLINK-3696,1 51965U 22025K   22123.91667824 -.00716284  00000-0 -10256-1 0  9995,2 51965  53.2173 226.3638 0001280  51.9414 282.8612 15.57989964  3706,6771.611999999999,92.427,394.344,392.61,0.0
51965.0,STARLINK-3696,PAYLOAD,2022-05-04 06:00:02,15.57477905,0.0001365,53.2175,224.7502,45.4691,359.7394,-0.010395,-0.00712437,0.0,0 STARLINK-3696,1 51965U 22025K   22124.25002315 -.00712437  00000-0 -10395-1 0  9991,2 51965  53.2175 224.7502 0001365  45.4691 359.7394 15.57477905 10020,6773.096,92.457,395.886,394.037,0.0
51965.0,STARLINK-3696,PAYLOAD,2022-05-04 14:00:01,15.56969933,0.0001609,53.2172,223.1412,42.4163,72.4521,-0.010648,-0.00715706,0.0,0 STARLINK-3696,1 51965U 22025K   22124.58334491 -.00715706  00000-0 -10648-1 0  9993,2 51965  53.2172 223.1412 0001609  42.4163  72.4521 15.56969933  3751,6774.569,92.487,397.524,395.344,0.0
51965.0,STARLINK-3696,PAYLOAD,2022-05-04 22:00:01,15.56459737,0.0001505,53.2173,221.5303,50.0435,134.0047,-0.01085,-0.00715463,0.0,0 STARLINK-3696,1 51965U 22025K   22124.91668981 -.00715463  00000-0 -10850-1 0  9999,2 51965  53.2173 221.5303 0001505  50.0435 134.0047 15.56459737  3704,6776.05,92.518,398.934,396.895,0.0
51965.0,STARLINK-3696,PAYLOAD,2022-05-05 06:00:00,15.55948474,0.0001595999999999,53.2175,219.9204,44.6649,207.8205,-0.011003,-0.00712146,0.0,0 STARLINK-3696,1 51965U 22025K   22125.25001157 -.00712146  00000-0 -11003-1 0  9999,2 51965  53.2175 219.9204 0001596  44.6649 207.8205 15.55948474 10188,6777.534000000002,92.548,400.481,398.317,0.0
51965.0,STARLINK-3696,PAYLOAD,2022-05-05 14:00:01,15.55440293,0.000173,53.2175,218.3152,35.6906,284.6816,-0.011283,-0.00716245,0.0,0 STARLINK-3696,1 51965U 22025K   22125.58334491 -.00716245  00000-0 -11283-1 0  9999,2 51965  53.2175 218.3152 0001730  35.6906 284.6816 15.55440293  3717,6779.01,92.578,402.048,399.702,0.0
